HULIANWANG DIGUI 13B    
1 66413U 25258B   25316.74913053  .00000134  00000+0  12246-3 0  9996
2 66413  50.0040  28.3330 0013163 252.9196 107.0276 14.25997308   380
HULIANWANG DIGUI 13C    
1 66414U 25258C   25317.73023222  .00000202  00000+0  15086-3 0  9998
2 66414  50.0036  24.1855 0013233 257.6593 102.2839 14.25997081   529
HULIANWANG DIGUI 13D    
1 66415U 25258D   25317.44978191  .00000194  00000+0  14721-3 0  9996
2 66415  50.0052  25.3749 0013151 262.1757  97.7664 14.26054300   483
HULIANWANG DIGUI 13E    
1 66416U 25258E   25317.72975929  .00000202  00000+0  15014-3 0  9990
2 66416  50.0059  24.1903 0012455 262.5909  97.3589 14.26184771   522
HULIANWANG DIGUI 13F    
1 66417U 25258F   25316.60855648  .00000130  00000+0  12039-3 0  9996
2 66417  50.0012  28.9161 0012022 253.4254 106.5340 14.26239453   360
HULIANWANG DIGUI 13G    
1 66418U 25258G   25317.72963337  .00000202  00000+0  14994-3 0  9998
2 66418  50.0008  24.1743 0012453 260.6174  99.3332 14.26233153   528
HULIANWANG DIGUI 13H    
1 66419U 25258H   25317.37894831  .00000190  00000+0  14481-3 0  9999
2 66419  50.0011  25.6544 0011471 258.7515 101.2110 14.26388284   471
HULIANWANG DIGUI 13J    
1 66420U 25258J   25317.23857846  .00000186  00000+0  14262-3 0  9993
2 66420  50.0032  26.2522 0011016 262.7684  97.1978 14.26503776   443
CZ-12 R/B               
1 66421U 25258K   25317.75904271  .00000057  00000+0  67269-4 0  9999
2 66421  49.9960  23.7027 0064663 145.1920 215.3256 14.42308105   536
