CCSDS_OMM_VERS = 2.0
CREATION_DATE  = 
ORIGINATOR     = 

OBJECT_NAME    = HULIANWANG DIGUI 13B
OBJECT_ID      = 2025-258B
CENTER_NAME    = EARTH
REF_FRAME      = TEME
TIME_SYSTEM    = UTC
MEAN_ELEMENT_THEORY = SGP/SGP4

EPOCH          = 2025-11-12T17:58:44.877792
MEAN_MOTION    = 14.25997308
ECCENTRICITY   = .00131634
INCLINATION    = 50.0040
RA_OF_ASC_NODE = 28.3330
ARG_OF_PERICENTER = 252.9196
MEAN_ANOMALY   = 107.0276

EPHEMERIS_TYPE = 0
CLASSIFICATION_TYPE = U
NORAD_CAT_ID   = 66413
ELEMENT_SET_NO = 999
REV_AT_EPOCH   = 38
BSTAR          = .12245957E-3
MEAN_MOTION_DOT = .134E-5
MEAN_MOTION_DDOT = 0

CCSDS_OMM_VERS = 2.0
CREATION_DATE  = 
ORIGINATOR     = 

OBJECT_NAME    = HULIANWANG DIGUI 13C
OBJECT_ID      = 2025-258C
CENTER_NAME    = EARTH
REF_FRAME      = TEME
TIME_SYSTEM    = UTC
MEAN_ELEMENT_THEORY = SGP/SGP4

EPOCH          = 2025-11-13T17:31:32.063808
MEAN_MOTION    = 14.25997081
ECCENTRICITY   = .00132337
INCLINATION    = 50.0036
RA_OF_ASC_NODE = 24.1855
ARG_OF_PERICENTER = 257.6593
MEAN_ANOMALY   = 102.2839

EPHEMERIS_TYPE = 0
CLASSIFICATION_TYPE = U
NORAD_CAT_ID   = 66414
ELEMENT_SET_NO = 999
REV_AT_EPOCH   = 52
BSTAR          = .15086382E-3
MEAN_MOTION_DOT = .202E-5
MEAN_MOTION_DDOT = 0

CCSDS_OMM_VERS = 2.0
CREATION_DATE  = 
ORIGINATOR     = 

OBJECT_NAME    = HULIANWANG DIGUI 13D
OBJECT_ID      = 2025-258D
CENTER_NAME    = EARTH
REF_FRAME      = TEME
TIME_SYSTEM    = UTC
MEAN_ELEMENT_THEORY = SGP/SGP4

EPOCH          = 2025-11-13T10:47:41.157024
MEAN_MOTION    = 14.26054300
ECCENTRICITY   = .00131512
INCLINATION    = 50.0052
RA_OF_ASC_NODE = 25.3749
ARG_OF_PERICENTER = 262.1757
MEAN_ANOMALY   = 97.7664

EPHEMERIS_TYPE = 0
CLASSIFICATION_TYPE = U
NORAD_CAT_ID   = 66415
ELEMENT_SET_NO = 999
REV_AT_EPOCH   = 48
BSTAR          = .14721443E-3
MEAN_MOTION_DOT = .194E-5
MEAN_MOTION_DDOT = 0

CCSDS_OMM_VERS = 2.0
CREATION_DATE  = 
ORIGINATOR     = 

OBJECT_NAME    = HULIANWANG DIGUI 13E
OBJECT_ID      = 2025-258E
CENTER_NAME    = EARTH
REF_FRAME      = TEME
TIME_SYSTEM    = UTC
MEAN_ELEMENT_THEORY = SGP/SGP4

EPOCH          = 2025-11-13T17:30:51.202656
MEAN_MOTION    = 14.26184771
ECCENTRICITY   = .00124554
INCLINATION    = 50.0059
RA_OF_ASC_NODE = 24.1903
ARG_OF_PERICENTER = 262.5909
MEAN_ANOMALY   = 97.3589

EPHEMERIS_TYPE = 0
CLASSIFICATION_TYPE = U
NORAD_CAT_ID   = 66416
ELEMENT_SET_NO = 999
REV_AT_EPOCH   = 52
BSTAR          = .15013874E-3
MEAN_MOTION_DOT = .202E-5
MEAN_MOTION_DDOT = 0

CCSDS_OMM_VERS = 2.0
CREATION_DATE  = 
ORIGINATOR     = 

OBJECT_NAME    = HULIANWANG DIGUI 13F
OBJECT_ID      = 2025-258F
CENTER_NAME    = EARTH
REF_FRAME      = TEME
TIME_SYSTEM    = UTC
MEAN_ELEMENT_THEORY = SGP/SGP4

EPOCH          = 2025-11-12T14:36:19.279872
MEAN_MOTION    = 14.26239453
ECCENTRICITY   = .00120223
INCLINATION    = 50.0012
RA_OF_ASC_NODE = 28.9161
ARG_OF_PERICENTER = 253.4254
MEAN_ANOMALY   = 106.5340

EPHEMERIS_TYPE = 0
CLASSIFICATION_TYPE = U
NORAD_CAT_ID   = 66417
ELEMENT_SET_NO = 999
REV_AT_EPOCH   = 36
BSTAR          = .12039144E-3
MEAN_MOTION_DOT = .13E-5
MEAN_MOTION_DDOT = 0

CCSDS_OMM_VERS = 2.0
CREATION_DATE  = 
ORIGINATOR     = 

OBJECT_NAME    = HULIANWANG DIGUI 13G
OBJECT_ID      = 2025-258G
CENTER_NAME    = EARTH
REF_FRAME      = TEME
TIME_SYSTEM    = UTC
MEAN_ELEMENT_THEORY = SGP/SGP4

EPOCH          = 2025-11-13T17:30:40.323168
MEAN_MOTION    = 14.26233153
ECCENTRICITY   = .00124532
INCLINATION    = 50.0008
RA_OF_ASC_NODE = 24.1743
ARG_OF_PERICENTER = 260.6174
MEAN_ANOMALY   = 99.3332

EPHEMERIS_TYPE = 0
CLASSIFICATION_TYPE = U
NORAD_CAT_ID   = 66418
ELEMENT_SET_NO = 999
REV_AT_EPOCH   = 52
BSTAR          = .14993554E-3
MEAN_MOTION_DOT = .202E-5
MEAN_MOTION_DDOT = 0

CCSDS_OMM_VERS = 2.0
CREATION_DATE  = 
ORIGINATOR     = 

OBJECT_NAME    = HULIANWANG DIGUI 13H
OBJECT_ID      = 2025-258H
CENTER_NAME    = EARTH
REF_FRAME      = TEME
TIME_SYSTEM    = UTC
MEAN_ELEMENT_THEORY = SGP/SGP4

EPOCH          = 2025-11-13T09:05:41.133984
MEAN_MOTION    = 14.26388284
ECCENTRICITY   = .00114714
INCLINATION    = 50.0011
RA_OF_ASC_NODE = 25.6544
ARG_OF_PERICENTER = 258.7515
MEAN_ANOMALY   = 101.2110

EPHEMERIS_TYPE = 0
CLASSIFICATION_TYPE = U
NORAD_CAT_ID   = 66419
ELEMENT_SET_NO = 999
REV_AT_EPOCH   = 47
BSTAR          = .1448058E-3
MEAN_MOTION_DOT = .19E-5
MEAN_MOTION_DDOT = 0

CCSDS_OMM_VERS = 2.0
CREATION_DATE  = 
ORIGINATOR     = 

OBJECT_NAME    = HULIANWANG DIGUI 13J
OBJECT_ID      = 2025-258J
CENTER_NAME    = EARTH
REF_FRAME      = TEME
TIME_SYSTEM    = UTC
MEAN_ELEMENT_THEORY = SGP/SGP4

EPOCH          = 2025-11-13T05:43:33.178944
MEAN_MOTION    = 14.26503776
ECCENTRICITY   = .00110168
INCLINATION    = 50.0032
RA_OF_ASC_NODE = 26.2522
ARG_OF_PERICENTER = 262.7684
MEAN_ANOMALY   = 97.1978

EPHEMERIS_TYPE = 0
CLASSIFICATION_TYPE = U
NORAD_CAT_ID   = 66420
ELEMENT_SET_NO = 999
REV_AT_EPOCH   = 44
BSTAR          = .14262431E-3
MEAN_MOTION_DOT = .186E-5
MEAN_MOTION_DDOT = 0

CCSDS_OMM_VERS = 2.0
CREATION_DATE  = 
ORIGINATOR     = 

OBJECT_NAME    = CZ-12 R/B
OBJECT_ID      = 2025-258K
CENTER_NAME    = EARTH
REF_FRAME      = TEME
TIME_SYSTEM    = UTC
MEAN_ELEMENT_THEORY = SGP/SGP4

EPOCH          = 2025-11-13T18:13:01.290144
MEAN_MOTION    = 14.42308105
ECCENTRICITY   = .0064663
INCLINATION    = 49.9960
RA_OF_ASC_NODE = 23.7027
ARG_OF_PERICENTER = 145.1920
MEAN_ANOMALY   = 215.3256

EPHEMERIS_TYPE = 0
CLASSIFICATION_TYPE = U
NORAD_CAT_ID   = 66421
ELEMENT_SET_NO = 999
REV_AT_EPOCH   = 53
BSTAR          = .67269267E-4
MEAN_MOTION_DOT = .57E-6
MEAN_MOTION_DDOT = 0

